1 43055U 17079A   20228.95679270  .00000034  00000-0  00000-0 0  9997
2 43055  56.2222 280.1655 0003826 251.0812 108.9717  1.70474316 16657
1 43055U 17079A   20231.88972175  .00000036  00000-0  00000+0 0  9994
2 43055  56.2200 280.0849 0003886 251.8032 108.2514  1.70474243 16708
1 43055U 17079A   20237.75552480  .00000010  00000-0  00000+0 0  9991
2 43055  56.2159 279.9234 0003994 253.8043 106.2186  1.70474144 16804
1 43055U 17079A   20239.51528352  .00000013  00000-0  00000-0 0  9992
2 43055  56.2147 279.8749 0004036 254.4025 105.6210  1.70474129 16833
1 43055U 17079A   20241.27504845  .00000017  00000-0  00000+0 0  9992
2 43055  56.2134 279.8265 0004061 254.7732 105.2552  1.70474151 16861
1 43055U 17079A   20243.62139550  .00000014  00000-0  00000+0 0  9997
2 43055  56.2117 279.7619 0004106 255.5346 104.4969  1.70474220 16909
1 43055U 17079A   20245.96772842  .00000007  00000-0  00000+0 0  9995
2 43055  56.2101 279.6975 0004136 256.0790 103.9466  1.70474255 16946
1 43055U 17079A   20247.14089089  .00000006  00000-0  00000-0 0  9991
2 43055  56.2094 279.6652 0004153 256.4480 103.5722  1.70474276 16964
1 43055U 17079A   20248.31405322  .00000007  00000-0  00000+0 0  9993
2 43055  56.2086 279.6329 0004166 256.6187 103.3958  1.70474276 16987
1 43055U 17079A   20249.48721606  .00000010  00000-0  00000-0 0  9993
2 43055  56.2078 279.6007 0004188 256.8773 103.1322  1.70474285 17005
1 43055U 17079A   20250.07379823  .00000012  00000-0  00000-0 0  9992
2 43055  56.2074 279.5846 0004194 256.8780 103.1295  1.70474290 17012
1 43055U 17079A   20252.42013749  .00000023  00000-0  00000+0 0  9996
2 43055  56.2062 279.5201 0004222 257.4680 102.5368  1.70474233 17057
1 43055U 17079A   20252.42013763  .00000023  00000-0  00000-0 0  9993
2 43055  56.2057 279.5201 0004223 257.6245 102.3802  1.70474225 17053
1 43055U 17079A   20253.00672427  .00000027  00000-0  00000-0 0  9990
2 43055  56.2054 279.5039 0004215 257.5654 102.4402  1.70474228 17064
1 43055U 17079A   20253.59331224  .00000030  00000-0  00000-0 0  9995
2 43055  56.2050 279.4878 0004219 257.9070 102.0997  1.70474195 17079
1 43055U 17079A   20255.35307806  .00000040  00000-0  00000+0 0  9990
2 43055  56.2037 279.4394 0004229 258.2317 101.7799  1.70474138 17103
1 43055U 17079A   20256.52625468  .00000044  00000-0  00000-0 0  9992
2 43055  56.2029 279.4072 0004238 258.5983 101.4163  1.70474087 17126
1 43055U 17079A   20257.69942817  .00000046  00000-0  00000+0 0  9992
2 43055  56.2020 279.3749 0004251 258.9538 101.0618  1.70474046 17140
1 43055U 17079A   20258.28601324  .00000046  00000-0  00000-0 0  9994
2 43055  56.2016 279.3588 0004258 259.0762 100.9388  1.70474035 17155
1 43055U 17079A   20259.45917939  .00000042  00000-0  00000-0 0  9992
2 43055  56.2007 279.3265 0004272 259.4590 100.5521  1.70473987 17178
1 43055U 17079A   20260.04575976  .00000039  00000-0  00000+0 0  9995
2 43055  56.2002 279.3104 0004275 259.8074 100.2005  1.70473996 17184
1 43055U 17079A   20262.97865423  .00000019  00000-0  00000+0 0  9996
2 43055  56.1982 279.2297 0004296 261.0436  98.9419  1.70473924 17231
1 43055U 17079A   20264.15181510  .00000014  00000-0  00000-0 0  9992
2 43055  56.1974 279.1974 0004302 261.5515  98.4267  1.70473907 17253
1 43055U 17079A   20265.32498023  .00000013  00000-0  00000+0 0  9990
2 43055  56.1966 279.1650 0004304 261.8788  98.0955  1.70473933 17273
1 43055U 17079A   20267.08474099  .00000015  00000-0  00000-0 0  9995
2 43055  56.1955 279.1166 0004312 262.2960  97.6786  1.70473909 17303
1 43055U 17079A   20268.84450646  .00000015  00000-0  00000-0 0  9992
2 43055  56.1942 279.0682 0004341 263.1349  96.8431  1.70473917 17334
1 43055U 17079A   20270.60426761  .00000011  00000-0  00000-0 0  9996
2 43055  56.1930 279.0198 0004349 263.7603  96.2192  1.70473959 17367
1 43055U 17079A   20271.19085324  .00000009  00000-0  00000+0 0  9993
2 43055  56.1926 279.0037 0004347 263.9481  96.0308  1.70473963 17371
1 43055U 17079A   20274.12376762 -.00000002  00000-0  00000+0 0  9992
2 43055  56.1905 278.9232 0004329 264.7647  95.2032  1.70474008 17428
1 43055U 17079A   20274.12376762 -.00000002  00000-0  00000-0 0  9993
2 43055  56.1905 278.9232 0004329 264.7647  95.2032  1.70474008 17428
1 43055U 17079A   20275.29692992 -.00000003  00000-0  00000-0 0  9999
2 43055  56.1897 278.8910 0004326 264.9262  95.0356  1.70474037 17443
1 43055U 17079A   20278.22984566  .00000004  00000-0  00000+0 0  9995
2 43055  56.1876 278.8106 0004327 265.4497  94.5014  1.70474010 17495
1 43055U 17079A   20279.40301658  .00000010  00000-0  00000-0 0  9999
2 43055  56.1868 278.7784 0004323 265.7821  94.1683  1.70474020 17519
1 43055U 17079A   20281.74937124  .00000021  00000-0  00000+0 0  9993
2 43055  56.1851 278.7140 0004310 266.6654  93.2897  1.70473942 17550
1 43055U 17079A   20282.33596091  .00000024  00000-0  00000-0 0  9997
2 43055  56.1848 278.6978 0004305 267.0316  92.9254  1.70473923 17561
1 43055U 17079A   20282.92255051  .00000026  00000-0  00000-0 0  9992
2 43055  56.1844 278.6817 0004291 267.1972  92.7618  1.70473907 17577
1 43055U 17079A   20283.50913917  .00000028  00000-0  00000-0 0  9991
2 43055  56.1840 278.6656 0004286 267.4291  92.5316  1.70473901 17583
1 43055U 17079A   20284.68231718  .00000030  00000-0  00000+0 0  9995
2 43055  56.1831 278.6334 0004287 267.8667  92.0961  1.70473832 17605
1 43055U 17079A   20285.26890369  .00000030  00000-0  00000-0 0  9994
2 43055  56.1826 278.6172 0004285 268.0209  91.9419  1.70473827 17613
1 43055U 17079A   20286.44207373  .00000027  00000-0  00000-0 0  9998
2 43055  56.1817 278.5850 0004285 268.5864  91.3740  1.70473774 17631
1 43055U 17079A   20288.20181899  .00000016  00000-0  00000+0 0  9995
2 43055  56.1803 278.5367 0004277 269.3644  90.5866  1.70473726 17665
1 43055U 17079A   20288.78839909  .00000011  00000-0  00000-0 0  9996
2 43055  56.1798 278.5205 0004275 269.7330  90.2138  1.70473706 17671
1 43055U 17079A   20291.13472158 -.00000004  00000-0  00000+0 0  9990
2 43055  56.1781 278.4560 0004250 270.9355  88.9957  1.70473674 17712
1 43055U 17079A   20291.72130483 -.00000006  00000-0  00000-0 0  9990
2 43055  56.1777 278.4399 0004245 271.1506  88.7781  1.70473666 17727
1 43055U 17079A   20292.30788936 -.00000007  00000-0  00000-0 0  9998
2 43055  56.1772 278.4238 0004239 271.3960  88.5313  1.70473669 17736
1 43055U 17079A   20293.48106291 -.00000008  00000-0  00000-0 0  9997
2 43055  56.1764 278.3915 0004229 271.8409  88.0861  1.70473678 17755
1 43055U 17079A   20294.06765160 -.00000007  00000-0  00000-0 0  9997
2 43055  56.1760 278.3754 0004226 272.0227  87.9053  1.70473684 17769
1 43055U 17079A   20294.65424144 -.00000007  00000-0  00000-0 0  9996
2 43055  56.1755 278.3593 0004219 272.5118  87.4178  1.70473687 17777
1 43055U 17079A   20295.24083215 -.00000007  00000-0  00000-0 0  9992
2 43055  56.1750 278.3431 0004220 272.3844  87.5470  1.70473675 17783
1 43055U 17079A   20297.00060148 -.00000009  00000-0  00000+0 0  9999
2 43055  56.1737 278.2948 0004208 273.1289  86.8075  1.70473711 17816
1 43055U 17079A   20297.00060193 -.00000009  00000-0  00000-0 0  9990
2 43055  56.1737 278.2948 0004205 273.2183  86.7182  1.70473706 17819
1 43055U 17079A   20297.58719074 -.00000011  00000-0  00000-0 0  9995
2 43055  56.1732 278.2787 0004199 273.4854  86.4520  1.70473714 17827
1 43055U 17079A   20298.17377786 -.00000014  00000-0  00000-0 0  9994
2 43055  56.1728 278.2626 0004193 273.6903  86.2474  1.70473739 17839
1 43055U 17079A   20299.34695011 -.00000019  00000-0  00000-0 0  9993
2 43055  56.1719 278.2304 0004175 274.1793  85.7574  1.70473765 17851
1 43055U 17079A   20299.93353540 -.00000022  00000-0  00000-0 0  9990
2 43055  56.1714 278.2143 0004165 274.4241  85.5112  1.70473764 17863
1 43055U 17079A   20301.10670324 -.00000027  00000-0  00000-0 0  9990
2 43055  56.1705 278.1821 0004142 274.8838  85.0476  1.70473785 17889
1 43055U 17079A   20301.69328689 -.00000028  00000-0  00000-0 0  9999
2 43055  56.1701 278.1661 0004128 275.1442  84.7850  1.70473793 17898
1 43055U 17079A   20302.86645346 -.00000029  00000-0  00000-0 0  9992
2 43055  56.1692 278.1339 0004118 275.3805  84.5442  1.70473805 17915
1 43055U 17079A   20303.45303740 -.00000029  00000-0  00000-0 0  9997
2 43055  56.1688 278.1179 0004104 275.6305  84.2923  1.70473819 17922
1 43055U 17079A   20305.21279404 -.00000024  00000-0  00000-0 0  9997
2 43055  56.1674 278.0697 0004086 276.2234  83.6962  1.70473806 17953
1 43055U 17079A   20305.79938131 -.00000022  00000-0  00000+0 0  9996
2 43055  56.1670 278.0536 0004078 276.4522  83.4675  1.70473801 17969
1 43055U 17079A   20308.14573947 -.00000010  00000-0  00000+0 0  9995
2 43055  56.1650 277.9894 0004043 277.3926  82.5330  1.70473762 18002
1 43055U 17079A   20309.90551514 -.00000002  00000-0  00000-0 0  9998
2 43055  56.1637 277.9411 0004014 278.0923  81.8418  1.70473708 18037
1 43055U 17079A   20311.07869960  .00000002  00000-0  00000+0 0  9994
2 43055  56.1626 277.9089 0003991 278.8719  81.0678  1.70473650 18058
1 43055U 17079A   20315.18480930 -.00000008  00000+0  00000+0 0  9992
2 43055  56.1593 277.7962 0003947 280.8793  79.0598  1.70473546 18125
1 43055U 17079A   20316.94455706 -.00000020  00000+0  00000+0 0  9994
2 43055  56.1579 277.7478 0003928 281.4309  78.4990  1.70473512 18155
1 43055U 17079A   20319.29089459 -.00000031  00000-0  00000-0 0  9997
2 43055  56.1560 277.6834 0003892 282.5561  77.3659  1.70473490 18191
1 43055U 17079A   20319.87748202 -.00000032  00000-0  00000-0 0  9990
2 43055  56.1556 277.6673 0003880 282.8628  77.0593  1.70473501 18200
1 43055U 17079A   20320.46407191 -.00000032  00000-0  00000-0 0  9996
2 43055  56.1561 277.6511 0003860 283.1583  76.7649  1.70473490 18215
1 43055U 17079A   20322.22384687 -.00000030  00000-0  00000-0 0  9994
2 43055  56.1545 277.6028 0003833 283.9837  75.9467  1.70473501 18245
